start=new Date('2022-03-06T00:00:00.000Z').valueOf();
sats=[{"INCLINATION":"53.0572","MEAN_ANOMALY":"308.9585","EPOCH":"2022-03-05T13:03:28.184544","TLE_LINE2":"2 45082  53.0572   3.9073 0002162  51.1596 308.9585 15.06395848115906","EPHEMERIS_TYPE":"0","RA_OF_ASC_NODE":"3.9073","MEAN_MOTION_DDOT":"0.0000000000000","FILE":"3346052","REF_FRAME":"TEME","LAUNCH_DATE":"2020-01-29","NORAD_CAT_ID":"45082","MEAN_MOTION_DOT":"0.00000902","RCS_SIZE":"LARGE","OBJECT_NAME":"STARLINK-1160","PERIAPSIS":"545.729","DECAY_DATE":null,"MEAN_MOTION":"15.06395848","ARG_OF_PERICENTER":"51.1596","CLASSIFICATION_TYPE":"U","GP_ID":"197980158","APOAPSIS":"548.724","COUNTRY_CODE":"US","TLE_LINE1":"1 45082U 20006AQ  22064.54407621  .00000902  00000-0  79480-4 0  9993","ELEMENT_SET_NO":"999","OBJECT_TYPE":"PAYLOAD","PERIOD":"95.592","SEMIMAJOR_AXIS":"6925.361","SITE":"AFETR","BSTAR":"0.00007948000000","REV_AT_EPOCH":"11590","MEAN_ELEMENT_THEORY":"SGP4","TIME_SYSTEM":"UTC","CENTER_NAME":"EARTH","OBJECT_ID":"2020-006AQ","ECCENTRICITY":"0.00021620"},{"OBJECT_ID":"2020-006AR","ECCENTRICITY":"0.00017020","BSTAR":"0.00016544000000","REV_AT_EPOCH":"11563","MEAN_ELEMENT_THEORY":"SGP4","CENTER_NAME":"EARTH","TIME_SYSTEM":"UTC","SITE":"AFETR","SEMIMAJOR_AXIS":"6925.338","OBJECT_TYPE":"PAYLOAD","PERIOD":"95.592","ELEMENT_SET_NO":"999","TLE_LINE1":"1 45083U 20006AR  22064.57539314  .00002184  00000-0  16544-3 0  9997","CLASSIFICATION_TYPE":"U","APOAPSIS":"548.382","GP_ID":"197979906","COUNTRY_CODE":"US","DECAY_DATE":null,"MEAN_MOTION":"15.06403336","ARG_OF_PERICENTER":"59.2343","PERIAPSIS":"546.025","OBJECT_NAME":"STARLINK-1190","RCS_SIZE":"LARGE","MEAN_MOTION_DOT":"0.00002184","REF_FRAME":"TEME","FILE":"3346052","LAUNCH_DATE":"2020-01-29","NORAD_CAT_ID":"45083","MEAN_MOTION_DDOT":"0.0000000000000","EPOCH":"2022-03-05T13:48:33.967296","TLE_LINE2":"2 45083  53.0574  23.7817 0001702  59.2343 300.8813 15.06403336115630","RA_OF_ASC_NODE":"23.7817","EPHEMERIS_TYPE":"0","INCLINATION":"53.0574","MEAN_ANOMALY":"300.8813"},{"LAUNCH_DATE":"2020-01-29","NORAD_CAT_ID":"45084","FILE":"3346052","REF_FRAME":"TEME","MEAN_MOTION_DDOT":"0.0000000000000","TLE_LINE2":"2 45084  53.0568 344.1553 0001547  64.3941 295.7208 15.06404854116186","EPHEMERIS_TYPE":"0","RA_OF_ASC_NODE":"344.1553","EPOCH":"2022-03-05T11:46:29.584416","MEAN_ANOMALY":"295.7208","INCLINATION":"53.0568","COUNTRY_CODE":"US","GP_ID":"197978657","APOAPSIS":"548.270","CLASSIFICATION_TYPE":"U","MEAN_MOTION":"15.06404854","ARG_OF_PERICENTER":"64.3941","DECAY_DATE":null,"PERIAPSIS":"546.127","RCS_SIZE":"LARGE","MEAN_MOTION_DOT":"0.00000615","OBJECT_NAME":"STARLINK-1173","SITE":"AFETR","SEMIMAJOR_AXIS":"6925.334","PERIOD":"95.592","OBJECT_TYPE":"PAYLOAD","ELEMENT_SET_NO":"999","TLE_LINE1":"1 45084U 20006AS  22064.49062019  .00000615  00000-0  60200-4 0  9998","ECCENTRICITY":"0.00015470","OBJECT_ID":"2020-006AS","CENTER_NAME":"EARTH","TIME_SYSTEM":"UTC","BSTAR":"0.00006020000000","MEAN_ELEMENT_THEORY":"SGP4","REV_AT_EPOCH":"11618"},{"INCLINATION":"53.0552","MEAN_ANOMALY":"296.8770","EPOCH":"2022-03-05T21:14:24.697248","EPHEMERIS_TYPE":"0","TLE_LINE2":"2 45085  53.0552 342.3723 0001768  63.2400 296.8770 15.06408519116247","RA_OF_ASC_NODE":"342.3723","MEAN_MOTION_DDOT":"0.0000000000000","REF_FRAME":"TEME","FILE":"3346512","NORAD_CAT_ID":"45085","LAUNCH_DATE":"2020-01-29","RCS_SIZE":"LARGE","OBJECT_NAME":"STARLINK-1179","MEAN_MOTION_DOT":"0.00000824","PERIAPSIS":"545.963","DECAY_DATE":null,"MEAN_MOTION":"15.06408519","ARG_OF_PERICENTER":"63.2400","CLASSIFICATION_TYPE":"U","COUNTRY_CODE":"US","GP_ID":"198015102","APOAPSIS":"548.412","TLE_LINE1":"1 45085U 20006AT  22064.88500807  .00000824  00000-0  74230-4 0  9994","ELEMENT_SET_NO":"999","OBJECT_TYPE":"PAYLOAD","PERIOD":"95.592","SITE":"AFETR","SEMIMAJOR_AXIS":"6925.322","BSTAR":"0.00007423000000","MEAN_ELEMENT_THEORY":"SGP4","REV_AT_EPOCH":"11624","CENTER_NAME":"EARTH","TIME_SYSTEM":"UTC","OBJECT_ID":"2020-006AT","ECCENTRICITY":"0.00017680"},{"OBJECT_ID":"2020-006AU","ECCENTRICITY":"0.00021810","BSTAR":"0.00126440000000","MEAN_ELEMENT_THEORY":"SGP4","REV_AT_EPOCH":"11620","TIME_SYSTEM":"UTC","CENTER_NAME":"EARTH","OBJECT_TYPE":"PAYLOAD","PERIOD":"95.299","SEMIMAJOR_AXIS":"6911.168","SITE":"AFETR","TLE_LINE1":"1 45086U 20006AU  22064.93916478  .00021151  00000-0  12644-2 0  9991","ELEMENT_SET_NO":"999","DECAY_DATE":null,"ARG_OF_PERICENTER":"118.6648","MEAN_MOTION":"15.11038560","CLASSIFICATION_TYPE":"U","GP_ID":"198015352","APOAPSIS":"534.541","COUNTRY_CODE":"US","RCS_SIZE":"LARGE","OBJECT_NAME":"STARLINK-1181","MEAN_MOTION_DOT":"0.00021151","PERIAPSIS":"531.526","MEAN_MOTION_DDOT":"0.0000000000000","FILE":"3346512","REF_FRAME":"TEME","LAUNCH_DATE":"2020-01-29","NORAD_CAT_ID":"45086","INCLINATION":"53.0021","MEAN_ANOMALY":"241.4562","EPOCH":"2022-03-05T22:32:23.836992","TLE_LINE2":"2 45086  53.0021 337.5096 0002181 118.6648 241.4562 15.11038560116209","EPHEMERIS_TYPE":"0","RA_OF_ASC_NODE":"337.5096"},{"REV_AT_EPOCH":"11625","BSTAR":"0.00022163000000","MEAN_ELEMENT_THEORY":"SGP4","TIME_SYSTEM":"UTC","CENTER_NAME":"EARTH","ECCENTRICITY":"0.00014550","OBJECT_ID":"2020-006AV","TLE_LINE1":"1 45087U 20006AV  22064.93661039  .00003023  00000-0  22163-3 0  9998","ELEMENT_SET_NO":"999","OBJECT_TYPE":"PAYLOAD","PERIOD":"95.591","SEMIMAJOR_AXIS":"6925.296","SITE":"AFETR","RCS_SIZE":"LARGE","OBJECT_NAME":"STARLINK-1185","MEAN_MOTION_DOT":"0.00003023","PERIAPSIS":"546.154","DECAY_DATE":null,"MEAN_MOTION":"15.06417061","ARG_OF_PERICENTER":"68.9802","CLASSIFICATION_TYPE":"U","GP_ID":"198016103","COUNTRY_CODE":"US","APOAPSIS":"548.169","INCLINATION":"53.0564","MEAN_ANOMALY":"291.1342","EPOCH":"2022-03-05T22:28:43.137696","TLE_LINE2":"2 45087  53.0564 342.1416 0001455  68.9802 291.1342 15.06417061116256","EPHEMERIS_TYPE":"0","RA_OF_ASC_NODE":"342.1416","MEAN_MOTION_DDOT":"0.0000000000000","FILE":"3346512","REF_FRAME":"TEME","LAUNCH_DATE":"2020-01-29","NORAD_CAT_ID":"45087"},{"PERIOD":"95.591","OBJECT_TYPE":"PAYLOAD","SEMIMAJOR_AXIS":"6925.297","SITE":"AFETR","TLE_LINE1":"1 45088U 20006AW  22064.75968593  .00001679  00000-0  13155-3 0  9990","ELEMENT_SET_NO":"999","ECCENTRICITY":"0.00015270","OBJECT_ID":"2020-006AW","TIME_SYSTEM":"UTC","CENTER_NAME":"EARTH","BSTAR":"0.00013155000000","MEAN_ELEMENT_THEORY":"SGP4","REV_AT_EPOCH":"11622","MEAN_MOTION_DDOT":"0.0000000000000","NORAD_CAT_ID":"45088","LAUNCH_DATE":"2020-01-29","FILE":"3346512","REF_FRAME":"TEME","MEAN_ANOMALY":"295.6388","INCLINATION":"53.0543","TLE_LINE2":"2 45088  53.0543 342.9563 0001527  64.4759 295.6388 15.06416795116226","EPHEMERIS_TYPE":"0","RA_OF_ASC_NODE":"342.9563","EPOCH":"2022-03-05T18:13:56.864352","ARG_OF_PERICENTER":"64.4759","MEAN_MOTION":"15.06416795","DECAY_DATE":null,"GP_ID":"198016354","COUNTRY_CODE":"US","APOAPSIS":"548.220","CLASSIFICATION_TYPE":"U","RCS_SIZE":"LARGE","OBJECT_NAME":"STARLINK-1183","MEAN_MOTION_DOT":"0.00001679","PERIAPSIS":"546.105"},{"TLE_LINE1":"1 45089U 20006AX  22064.75874697  .00000264  00000-0  36646-4 0  9992","ELEMENT_SET_NO":"999","PERIOD":"95.592","OBJECT_TYPE":"PAYLOAD","SEMIMAJOR_AXIS":"6925.331","SITE":"AFETR","TIME_SYSTEM":"UTC","CENTER_NAME":"EARTH","MEAN_ELEMENT_THEORY":"SGP4","BSTAR":"0.00003664600000","REV_AT_EPOCH":"11623","OBJECT_ID":"2020-006AX","ECCENTRICITY":"0.00016430","INCLINATION":"53.0604","MEAN_ANOMALY":"291.9531","EPHEMERIS_TYPE":"0","TLE_LINE2":"2 45089  53.0604 342.9350 0001643  68.1632 291.9531 15.06405660116238","RA_OF_ASC_NODE":"342.9350","EPOCH":"2022-03-05T18:12:35.738208","MEAN_MOTION_DDOT":"0.0000000000000","LAUNCH_DATE":"2020-01-29","NORAD_CAT_ID":"45089","FILE":"3346512","REF_FRAME":"TEME","RCS_SIZE":"LARGE","OBJECT_NAME":"STARLINK-1136","MEAN_MOTION_DOT":"0.00000264","PERIAPSIS":"546.058","MEAN_MOTION":"15.06405660","ARG_OF_PERICENTER":"68.1632","DECAY_DATE":null,"COUNTRY_CODE":"US","GP_ID":"198015602","APOAPSIS":"548.334","CLASSIFICATION_TYPE":"U"},{"TLE_LINE1":"1 45090U 20006AY  22064.74497084  .00000248  00000-0  35528-4 0  9994","ELEMENT_SET_NO":"999","PERIOD":"95.593","OBJECT_TYPE":"PAYLOAD","SITE":"AFETR","SEMIMAJOR_AXIS":"6925.380","CENTER_NAME":"EARTH","TIME_SYSTEM":"UTC","REV_AT_EPOCH":"11622","BSTAR":"0.00003552800000","MEAN_ELEMENT_THEORY":"SGP4","ECCENTRICITY":"0.00014890","OBJECT_ID":"2020-006AY","MEAN_ANOMALY":"300.0119","INCLINATION":"53.0554","EPHEMERIS_TYPE":"0","TLE_LINE2":"2 45090  53.0554 343.0097 0001489  60.1018 300.0119 15.06389710116222","RA_OF_ASC_NODE":"343.0097","EPOCH":"2022-03-05T17:52:45.480576","MEAN_MOTION_DDOT":"0.0000000000000","LAUNCH_DATE":"2020-01-29","NORAD_CAT_ID":"45090","FILE":"3346512","REF_FRAME":"TEME","RCS_SIZE":"LARGE","MEAN_MOTION_DOT":"0.00000248","OBJECT_NAME":"STARLINK-1176","PERIAPSIS":"546.214","ARG_OF_PERICENTER":"60.1018","MEAN_MOTION":"15.06389710","DECAY_DATE":null,"APOAPSIS":"548.276","GP_ID":"198015852","COUNTRY_CODE":"US","CLASSIFICATION_TYPE":"U"},{"CLASSIFICATION_TYPE":"U","APOAPSIS":"548.232","GP_ID":"198016603","COUNTRY_CODE":"US","DECAY_DATE":null,"MEAN_MOTION":"15.06411844","ARG_OF_PERICENTER":"57.1749","PERIAPSIS":"546.123","RCS_SIZE":"LARGE","OBJECT_NAME":"STARLINK-1137","MEAN_MOTION_DOT":"0.00002894","FILE":"3346512","REF_FRAME":"TEME","LAUNCH_DATE":"2020-01-29","NORAD_CAT_ID":"45092","MEAN_MOTION_DDOT":"0.0000000000000","EPOCH":"2022-03-05T22:02:10.512672","TLE_LINE2":"2 45092  53.0561 342.2411 0001523  57.1749 302.9387 15.06411844116243","EPHEMERIS_TYPE":"0","RA_OF_ASC_NODE":"342.2411","INCLINATION":"53.0561","MEAN_ANOMALY":"302.9387","OBJECT_ID":"2020-006BA","ECCENTRICITY":"0.00015230","REV_AT_EPOCH":"11624","BSTAR":"0.00021303000000","MEAN_ELEMENT_THEORY":"SGP4","CENTER_NAME":"EARTH","TIME_SYSTEM":"UTC","SITE":"AFETR","SEMIMAJOR_AXIS":"6925.312","OBJECT_TYPE":"PAYLOAD","PERIOD":"95.591","ELEMENT_SET_NO":"999","TLE_LINE1":"1 45092U 20006BA  22064.91817723  .00002894  00000-0  21303-3 0  9995"}];
